ONEWEB-0624             
1 55165U 23004AB  23309.93413221  .00023733  00000+0  65878-1 0  9995
2 55165  87.9150 180.3487 0002475  74.2166 285.9235 13.12326001 42884
ONEWEB-0625             
1 55166U 23004AC  23309.94510942 -.00000010  00000+0 -59976-4 0  9995
2 55166  87.9229 195.5627 0001874  66.3492 293.7836 13.17651661 41917
ONEWEB-0626             
1 55167U 23004AD  23309.93244100 -.00000015  00000+0 -70903-4 0  9993
2 55167  87.9246 195.5563 0001239  91.3594 268.7680 13.17648720 41913
ONEWEB-0627             
1 55168U 23004AE  23309.92609001  .00000052  00000+0  10141-3 0  9994
2 55168  87.9229 195.5707 0002164  95.5733 264.5646 13.17652814 41919
ONEWEB-0628             
1 55169U 23004AF  23309.91296267 -.00000568  00000+0 -16138-2 0  9995
2 55169  87.8964 180.4207 0002106  83.7633 276.3735 13.12443726 42867
ONEWEB-0629             
1 55170U 23004AG  23309.91978754  .00000153  00000+0  36109-3 0  9994
2 55170  87.9244 195.5593 0002263  74.8615 285.2767 13.17648606 41919
ONEWEB-0631             
1 55171U 23004AH  23310.25001157  .00000015  00000+0  00000+0 0  9992
2 55171  87.5180 165.7373 0003239  27.3318 148.4037 13.66551674 43887
ONEWEB-0709             
1 55172U 23004AJ  23309.95943713  .00000713  00000+0  19773-2 0  9996
2 55172  87.9020 210.6871 0000984  98.0428 262.0812 13.11414789 40807
